NORAD_CAT_ID,OBJECT_NAME,OBJECT_TYPE,EPOCH,MEAN_MOTION,ECCENTRICITY,INCLINATION,RA_OF_ASC_NODE,ARG_OF_PERICENTER,MEAN_ANOMALY,BSTAR,MEAN_MOTION_DOT,MEAN_MOTION_DDOT,TLE_LINE0,TLE_LINE1,TLE_LINE2,SEMIMAJOR_AXIS,PERIOD,APOGEE,PERIGEE,DECAYED
55653.0,STARLINK-5067,PAYLOAD,2024-04-24 09:18:01,14.98330021,0.0002703,69.9988,109.662,267.4555,92.6295,5.2888e-05,5.38e-06,0.0,0 STARLINK-5067,1 55653U 23021AB  24115.38751286  .00000538  00000-0  52888-4 0  9996,2 55653  69.9988 109.6620 0002703 267.4555  92.6295 14.98330021 65998,6950.193,96.107,573.936,570.179,0.0
55653.0,STARLINK-5067,PAYLOAD,2024-04-25 09:20:02,14.98327503,0.0002697,69.999,107.1377,265.6576,94.4274,-6.1595e-06,-1.66e-06,0.0,0 STARLINK-5067,1 55653U 23021AB  24116.38891614 -.00000166  00000-0 -61595-5 0  9992,2 55653  69.9990 107.1377 0002697 265.6576  94.4274 14.98327503 66144,6950.201,96.107,573.94,570.191,0.0
55653.0,STARLINK-5067,PAYLOAD,2024-04-26 04:33:38,14.98344217,0.0001915,69.9988,105.1175,248.5104,111.585,-0.00018821,-2.339e-05,0.0,0 STARLINK-5067,1 55653U 23021AB  24117.19003044 -.00002339  00000-0 -18821-3 0  9990,2 55653  69.9988 105.1175 0001915 248.5104 111.5850 14.98344217 66269,6950.149,96.106,573.345,570.683,0.0
55653.0,STARLINK-5067,PAYLOAD,2024-04-26 09:22:01,14.98380346,0.0002117,69.9988,104.6127,255.8267,104.2657,-0.00072146,-8.701e-05,0.0,0 STARLINK-5067,1 55653U 23021AB  24117.39029695 -.00008701  00000-0 -72146-3 0  9991,2 55653  69.9988 104.6127 0002117 255.8267 104.2657 14.98380346 66296,6950.037,96.104,573.374,570.431,0.0
55653.0,STARLINK-5067,PAYLOAD,2024-04-26 15:46:35,14.98332651,0.0002389,69.9998,103.9387,271.0923,88.9962,-1.2063e-05,-2.37e-06,0.0,0 STARLINK-5067,1 55653U 23021AB  24117.65735236 -.00000237  00000-0 -12063-4 0  9994,2 55653  69.9998 103.9387 0002389 271.0923  88.9962 14.98332651 66335,6950.185,96.107,573.71,570.389,0.0
55653.0,STARLINK-5067,PAYLOAD,2024-04-27 04:35:39,14.98353107,0.000246,69.9991,102.591,269.7558,90.3319,-0.00027749,-3.404e-05,0.0,0 STARLINK-5067,1 55653U 23021AB  24118.19142561 -.00003404  00000-0 -27749-3 0  9992,2 55653  69.9991 102.5910 0002460 269.7558  90.3319 14.98353107 66414,6950.121,96.106,573.696,570.277,0.0
55653.0,STARLINK-5067,PAYLOAD,2024-04-27 09:24:03,14.98353189,0.0002439,69.999,102.0865,267.6475,92.4405,-0.00023143,-2.855e-05,0.0,0 STARLINK-5067,1 55653U 23021AB  24118.39170178 -.00002855  00000-0 -23143-3 0  9992,2 55653  69.9990 102.0865 0002439 267.6475  92.4405 14.98353189 66743,6950.121,96.106,573.681,570.291,0.0
55653.0,STARLINK-5067,PAYLOAD,2024-04-27 15:48:36,14.98328883,0.0002677,69.9992,101.4122,280.1132,79.9725,5.3242e-05,5.42e-06,0.0,0 STARLINK-5067,1 55653U 23021AB  24118.65875125  .00000542  00000-0  53242-4 0  9998,2 55653  69.9992 101.4122 0002677 280.1132  79.9725 14.98328883 66487,6950.196,96.107,573.922,570.201,0.0
55653.0,STARLINK-5067,PAYLOAD,2024-04-27 22:13:08,14.98325827,0.0002697,69.9994,100.7393,271.6676,88.4174,3.3298e-05,3.04e-06,0.0,0 STARLINK-5067,1 55653U 23021AB  24118.92579222  .00000304  00000-0  33298-4 0  9992,2 55653  69.9994 100.7393 0002697 271.6676  88.4174 14.98325827 66827,6950.206,96.107,573.945,570.196,0.0
55653.0,STARLINK-5067,PAYLOAD,2024-04-28 07:49:57,14.98323293,0.0002785,69.999,99.7304,264.4015,95.6827,-3.7789e-05,-5.44e-06,0.0,0 STARLINK-5067,1 55653U 23021AB  24119.32635610 -.00000544  00000-0 -37789-4 0  9998,2 55653  69.9990  99.7304 0002785 264.4015  95.6827 14.98323293 66883,6950.214,96.107,574.014,570.143,0.0
55653.0,STARLINK-5067,PAYLOAD,2024-04-28 15:50:37,14.98329684,0.0002781,69.9991,98.8891,268.4433,91.6408,-6.7762e-05,-9.01e-06,0.0,0 STARLINK-5067,1 55653U 23021AB  24119.66015310 -.00000901  00000-0 -67762-4 0  9995,2 55653  69.9991  98.8891 0002781 268.4433  91.6408 14.98329684 66633,6950.194,96.107,573.992,570.126,0.0
55653.0,STARLINK-5067,PAYLOAD,2024-04-28 22:15:09,14.9833101,0.0002814,69.999,98.2157,268.4068,91.6769,-7.8351e-06,-1.86e-06,0.0,0 STARLINK-5067,1 55653U 23021AB  24119.92719070 -.00000186  00000-0 -78351-5 0  9990,2 55653  69.9990  98.2157 0002814 268.4068  91.6769 14.98331010 66975,6950.19,96.107,574.011,570.099,0.0
55653.0,STARLINK-5067,PAYLOAD,2024-04-29 07:51:57,14.98331602,0.0002869,69.9988,97.2055,268.5126,91.5704,-3.4837e-05,-5.09e-06,0.0,0 STARLINK-5067,1 55653U 23021AB  24120.32775074 -.00000509  00000-0 -34837-4 0  9991,2 55653  69.9988  97.2055 0002869 268.5126  91.5704 14.98331602 67037,6950.188,96.107,574.047,570.059,0.0
55653.0,STARLINK-5067,PAYLOAD,2024-04-29 15:52:38,14.98317966,0.0002813,69.9987,96.3638,257.7135,102.3709,0.00019923,2.284e-05,0.0,0 STARLINK-5067,1 55653U 23021AB  24120.66155347  .00002284  00000-0  19923-3 0  9991,2 55653  69.9987  96.3638 0002813 257.7135 102.3709 14.98317966 66786,6950.23,96.108,574.05,570.14,0.0
55653.0,STARLINK-5067,PAYLOAD,2024-04-29 22:17:10,14.98324395,0.000301,69.9986,95.6901,270.0697,90.0117,6.2934e-05,6.58e-06,0.0,0 STARLINK-5067,1 55653U 23021AB  24120.92859236  .00000658  00000-0  62934-4 0  9992,2 55653  69.9986  95.6901 0003010 270.0697  90.0117 14.98324395 67120,6950.21,96.107,574.167,569.983,0.0
55653.0,STARLINK-5067,PAYLOAD,2024-04-30 07:53:58,14.9832831,0.0003013,69.9987,94.6801,270.1833,89.8981,6.9848e-05,7.4e-06,0.0,0 STARLINK-5067,1 55653U 23021AB  24121.32915052  .00000740  00000-0  69848-4 0  9999,2 55653  69.9987  94.6801 0003013 270.1833  89.8981 14.98328310 66883,6950.198,96.107,574.157,569.969,0.0
55653.0,STARLINK-5067,PAYLOAD,2024-04-30 22:19:11,14.9832797,0.0002993,69.9988,93.1648,270.1931,89.8885,1.1634e-05,4.6e-07,0.0,0 STARLINK-5067,1 55653U 23021AB  24121.92999311  .00000046  00000-0  11634-4 0  9994,2 55653  69.9988  93.1648 0002993 270.1931  89.8885 14.98327970 67270,6950.199,96.107,574.144,569.984,0.0
55653.0,STARLINK-5067,PAYLOAD,2024-05-01 04:43:43,14.98330611,0.0003007,69.9988,92.4916,270.4363,89.6451,1.6759e-05,1.07e-06,0.0,0 STARLINK-5067,1 55653U 23021AB  24122.19703151  .00000107  00000-0  16759-4 0  9990,2 55653  69.9988  92.4916 0003007 270.4363  89.6451 14.98330611 67317,6950.191,96.107,574.146,569.966,0.0
55653.0,STARLINK-5067,PAYLOAD,2024-05-01 20:45:04,14.98329417,0.0002972,69.9989,90.8082,270.6672,89.4147,1.7493e-05,1.16e-06,0.0,0 STARLINK-5067,1 55653U 23021AB  24122.86463208  .00000116  00000-0  17493-4 0  9996,2 55653  69.9989  90.8082 0002972 270.6672  89.4147 14.98329417 67119,6950.195,96.107,574.125,569.994,0.0
55653.0,STARLINK-5067,PAYLOAD,2024-05-02 07:58:00,14.98330621,0.0003026,69.9989,89.6301,271.0334,89.0478,7.4811e-06,-4e-08,0.0,0 STARLINK-5067,1 55653U 23021AB  24123.33195165 -.00000004  00000-0  74811-5 0  9998,2 55653  69.9989  89.6301 0003026 271.0334  89.0478 14.98330621 67482,6950.191,96.107,574.159,569.953,0.0
55653.0,STARLINK-5067,PAYLOAD,2024-05-02 20:47:04,14.98333591,0.0003073,69.9989,88.2836,270.9546,89.1261,7.5243e-05,8.05e-06,0.0,0 STARLINK-5067,1 55653U 23021AB  24123.86602690  .00000805  00000-0  75243-4 0  9999,2 55653  69.9989  88.2836 0003073 270.9546  89.1261 14.98333591 67261,6950.182,96.107,574.183,569.911,0.0
55653.0,STARLINK-5067,PAYLOAD,2024-05-03 08:00:00,14.98343464,0.0002959,69.9992,87.1057,270.1053,89.9767,0.00014106,1.591e-05,0.0,0 STARLINK-5067,1 55653U 23021AB  24124.33333658  .00001591  00000-0  14106-3 0  9990,2 55653  69.9992  87.1057 0002959 270.1053  89.9767 14.98343464 67332,6950.151,96.106,574.073,569.96,0.0
55653.0,STARLINK-5067,PAYLOAD,2024-05-03 14:24:33,14.98330429,0.0002986,69.9991,86.4323,269.3952,90.6865,-5.2801e-05,-7.23e-06,0.0,0 STARLINK-5067,1 55653U 23021AB  24124.60038881 -.00000723  00000-0 -52801-4 0  9993,2 55653  69.9991  86.4323 0002986 269.3952  90.6865 14.98330429 67679,6950.192,96.107,574.132,569.981,0.0
55653.0,STARLINK-5067,PAYLOAD,2024-05-03 22:25:14,14.98325148,0.0002409,69.9992,85.5907,271.0819,89.0064,-3.7691e-05,-5.43e-06,0.0,0 STARLINK-5067,1 55653U 23021AB  24124.93419402 -.00000543  00000-0 -37691-4 0  9991,2 55653  69.9992  85.5907 0002409 271.0819  89.0064 14.98325148 67721,6950.208,96.107,573.747,570.399,0.0
55653.0,STARLINK-5067,PAYLOAD,2024-05-04 04:49:47,14.98312298,0.00028,70.0,84.9184,265.2341,94.8498,-0.00016031,-2.004e-05,0.0,0 STARLINK-5067,1 55653U 23021AB  24125.20124625 -.00002004  00000-0 -16031-3 0  9990,2 55653  70.0000  84.9184 0002800 265.2341  94.8498 14.98312298 67462,6950.248,96.108,574.059,570.167,0.0
55653.0,STARLINK-5067,PAYLOAD,2024-05-04 20:51:08,14.98322179,0.0003262,70.0003,83.2356,272.0959,87.9826,-0.0001466,-1.841e-05,0.0,0 STARLINK-5067,1 55653U 23021AB  24125.86884475 -.00001841  00000-0 -14660-3 0  9992,2 55653  70.0003  83.2356 0003262 272.0959  87.9826 14.98322179 67560,6950.217,96.108,574.349,569.815,0.0
55653.0,STARLINK-5067,PAYLOAD,2024-05-05 06:27:56,14.98326429,0.0003335,69.9999,82.225,270.8605,89.2172,-9.7335e-05,-1.254e-05,0.0,0 STARLINK-5067,1 55653U 23021AB  24126.26940102 -.00001254  00000-0 -97335-4 0  9996,2 55653  69.9999  82.2250 0003335 270.8605  89.2172 14.98326429 67626,6950.204,96.107,574.387,569.751,0.0
55653.0,STARLINK-5067,PAYLOAD,2024-05-05 22:29:16,14.98322514,0.0003181,69.9994,80.5405,264.5338,95.5459,0.00023488,2.71e-05,0.0,0 STARLINK-5067,1 55653U 23021AB  24126.93699509  .00002710  00000-0  23488-3 0  9995,2 55653  69.9994  80.5405 0003181 264.5338  95.5459 14.98322514 68020,6950.216,96.107,574.292,569.87,0.0
55653.0,STARLINK-5067,PAYLOAD,2024-05-06 04:53:48,14.98330659,0.0003159,69.9993,79.867,264.2681,95.8118,0.00026163,3.03e-05,0.0,0 STARLINK-5067,1 55653U 23021AB  24127.20403017  .00003030  00000-0  26163-3 0  9992,2 55653  69.9993  79.8670 0003159 264.2681  95.8118 14.98330659 67761,6950.191,96.107,574.251,569.86,0.0
55653.0,STARLINK-5067,PAYLOAD,2024-05-06 14:30:36,14.98335087,0.0003141,69.9995,78.857,264.2039,95.8762,0.00024089,2.783e-05,0.0,0 STARLINK-5067,1 55653U 23021AB  24127.60458736  .00002783  00000-0  24089-3 0  9993,2 55653  69.9995  78.8570 0003141 264.2039  95.8762 14.98335087 68125,6950.177,96.107,574.225,569.859,0.0
